IRIDIUM 921 [-]         
1 24873U 97034E   24094.89433322  .00018266  00000+0  54787-3 0  9996
2 24873  86.3841 324.7669 0004873 142.9378 217.2210 15.34340609463776
IRIDIUM 26 [-]          
1 24903U 97043A   24094.92588558  .00000495  00000+0  16297-3 0  9995
2 24903  86.3909 294.9403 0002279  91.5274 268.6184 14.36265399394148
IRIDIUM 22 [-]          
1 24907U 97043E   24095.55168938  .00000414  00000+0  13803-3 0  9996
2 24907  86.3915 297.8582 0002040  89.7078 270.4353 14.35159128393831
DUMMY MASS 1 [-]        
1 24925U 97048A   24095.19627043  .00000459  00000+0  49211-4 0  9990
2 24925  86.3372 338.1907 0004432 258.6706 101.4021 14.86122227440159
DUMMY MASS 2 [-]        
1 24926U 97048B   24094.95150421  .00000492  00000+0  53308-4 0  9994
2 24926  86.3375 339.8329 0005233 276.6722  83.3907 14.85881243439661
IRIDIUM 29 [-]          
1 24944U 97051A   24095.15949920  .00000398  00000+0  13133-3 0  9997
2 24944  86.3966 327.9583 0001885  89.2223 270.9190 14.35618537390483
IRIDIUM 33 [-]          
1 24946U 97051C   24095.18723968  .00000273  00000+0  90335-4 0  9996
2 24946  86.3879 327.2037 0009969  74.7636 285.4661 14.34301706389818
IRIDIUM 28 [-]          
1 24948U 97051E   24095.14272304  .00000410  00000+0  13301-3 0  9997
2 24948  86.3966 325.7328 0002550  87.0323 273.1166 14.36567536390860
